CCSDS_OMM_VERS = 2.0
CREATION_DATE  = 
ORIGINATOR     = 

OBJECT_NAME    = STARLINK-35548
OBJECT_ID      = 2025-243AC
CENTER_NAME    = EARTH
REF_FRAME      = TEME
TIME_SYSTEM    = UTC
MEAN_ELEMENT_THEORY = SGP/SGP4

EPOCH          = 2025-11-22T12:00:02.998944
MEAN_MOTION    = 15.49234178
ECCENTRICITY   = .0001217
INCLINATION    = 53.1600
RA_OF_ASC_NODE = 23.5568
ARG_OF_PERICENTER = 83.8649
MEAN_ANOMALY   = 24.3042

EPHEMERIS_TYPE = 0
CLASSIFICATION_TYPE = U
NORAD_CAT_ID   = 66203
ELEMENT_SET_NO = 999
REV_AT_EPOCH   = 539
BSTAR          = .18543E-2
MEAN_MOTION_DOT = .103785E-2
MEAN_MOTION_DDOT = 0

CCSDS_OMM_VERS = 2.0
CREATION_DATE  = 
ORIGINATOR     = 

OBJECT_NAME    = STARLINK-35490
OBJECT_ID      = 2025-243AD
CENTER_NAME    = EARTH
REF_FRAME      = TEME
TIME_SYSTEM    = UTC
MEAN_ELEMENT_THEORY = SGP/SGP4

EPOCH          = 2025-11-22T12:00:02.998944
MEAN_MOTION    = 15.49305041
ECCENTRICITY   = .000118
INCLINATION    = 53.1599
RA_OF_ASC_NODE = 23.5646
ARG_OF_PERICENTER = 80.4150
MEAN_ANOMALY   = 23.8856

EPHEMERIS_TYPE = 0
CLASSIFICATION_TYPE = U
NORAD_CAT_ID   = 66204
ELEMENT_SET_NO = 999
REV_AT_EPOCH   = 528
BSTAR          = .16474E-3
MEAN_MOTION_DOT = .8723E-4
MEAN_MOTION_DDOT = 0

CCSDS_OMM_VERS = 2.0
CREATION_DATE  = 
ORIGINATOR     = 

OBJECT_NAME    = STARLINK-35748
OBJECT_ID      = 2025-244A
CENTER_NAME    = EARTH
REF_FRAME      = TEME
TIME_SYSTEM    = UTC
MEAN_ELEMENT_THEORY = SGP/SGP4

EPOCH          = 2025-11-22T12:00:02.998944
MEAN_MOTION    = 15.39581608
ECCENTRICITY   = .0001274
INCLINATION    = 53.1594
RA_OF_ASC_NODE = 11.5480
ARG_OF_PERICENTER = 95.4421
MEAN_ANOMALY   = 331.7556

EPHEMERIS_TYPE = 0
CLASSIFICATION_TYPE = U
NORAD_CAT_ID   = 66206
ELEMENT_SET_NO = 999
REV_AT_EPOCH   = 500
BSTAR          = .15084E-2
MEAN_MOTION_DOT = .60337E-3
MEAN_MOTION_DDOT = 0

CCSDS_OMM_VERS = 2.0
CREATION_DATE  = 
ORIGINATOR     = 

OBJECT_NAME    = STARLINK-35747
OBJECT_ID      = 2025-244B
CENTER_NAME    = EARTH
REF_FRAME      = TEME
TIME_SYSTEM    = UTC
MEAN_ELEMENT_THEORY = SGP/SGP4

EPOCH          = 2025-11-22T09:20:57.986592
MEAN_MOTION    = 15.71984677
ECCENTRICITY   = .000369
INCLINATION    = 53.1605
RA_OF_ASC_NODE = 10.2397
ARG_OF_PERICENTER = 351.3068
MEAN_ANOMALY   = 8.7886

EPHEMERIS_TYPE = 0
CLASSIFICATION_TYPE = U
NORAD_CAT_ID   = 66207
ELEMENT_SET_NO = 999
REV_AT_EPOCH   = 520
BSTAR          = .19514E-2
MEAN_MOTION_DOT = .267996E-2
MEAN_MOTION_DDOT = 0

CCSDS_OMM_VERS = 2.0
CREATION_DATE  = 
ORIGINATOR     = 

OBJECT_NAME    = STARLINK-35751
OBJECT_ID      = 2025-244C
CENTER_NAME    = EARTH
REF_FRAME      = TEME
TIME_SYSTEM    = UTC
MEAN_ELEMENT_THEORY = SGP/SGP4

EPOCH          = 2025-11-22T12:00:02.998944
MEAN_MOTION    = 15.39577282
ECCENTRICITY   = .0001715
INCLINATION    = 53.1594
RA_OF_ASC_NODE = 11.5440
ARG_OF_PERICENTER = 77.5653
MEAN_ANOMALY   = 351.4740

EPHEMERIS_TYPE = 0
CLASSIFICATION_TYPE = U
NORAD_CAT_ID   = 66208
ELEMENT_SET_NO = 999
REV_AT_EPOCH   = 511
BSTAR          = .14618E-2
MEAN_MOTION_DOT = .58437E-3
MEAN_MOTION_DDOT = 0

CCSDS_OMM_VERS = 2.0
CREATION_DATE  = 
ORIGINATOR     = 

OBJECT_NAME    = STARLINK-35750
OBJECT_ID      = 2025-244D
CENTER_NAME    = EARTH
REF_FRAME      = TEME
TIME_SYSTEM    = UTC
MEAN_ELEMENT_THEORY = SGP/SGP4

EPOCH          = 2025-11-22T12:00:02.998944
MEAN_MOTION    = 15.39566259
ECCENTRICITY   = .0001195
INCLINATION    = 53.1594
RA_OF_ASC_NODE = 11.4917
ARG_OF_PERICENTER = 77.0799
MEAN_ANOMALY   = 17.7232

EPHEMERIS_TYPE = 0
CLASSIFICATION_TYPE = U
NORAD_CAT_ID   = 66209
ELEMENT_SET_NO = 999
REV_AT_EPOCH   = 508
BSTAR          = .16941E-2
MEAN_MOTION_DOT = .67849E-3
MEAN_MOTION_DDOT = 0

CCSDS_OMM_VERS = 2.0
CREATION_DATE  = 
ORIGINATOR     = 

OBJECT_NAME    = STARLINK-35740
OBJECT_ID      = 2025-244E
CENTER_NAME    = EARTH
REF_FRAME      = TEME
TIME_SYSTEM    = UTC
MEAN_ELEMENT_THEORY = SGP/SGP4

EPOCH          = 2025-11-22T12:00:02.998944
MEAN_MOTION    = 15.39515192
ECCENTRICITY   = .0001272
INCLINATION    = 53.1594
RA_OF_ASC_NODE = 11.4955
ARG_OF_PERICENTER = 85.3553
MEAN_ANOMALY   = 7.7115

EPHEMERIS_TYPE = 0
CLASSIFICATION_TYPE = U
NORAD_CAT_ID   = 66210
ELEMENT_SET_NO = 999
REV_AT_EPOCH   = 495
BSTAR          = .21382E-2
MEAN_MOTION_DOT = .85798E-3
MEAN_MOTION_DDOT = 0

CCSDS_OMM_VERS = 2.0
CREATION_DATE  = 
ORIGINATOR     = 

OBJECT_NAME    = STARLINK-35723
OBJECT_ID      = 2025-244F
CENTER_NAME    = EARTH
REF_FRAME      = TEME
TIME_SYSTEM    = UTC
MEAN_ELEMENT_THEORY = SGP/SGP4

EPOCH          = 2025-11-22T12:00:02.998944
MEAN_MOTION    = 15.39573821
ECCENTRICITY   = .0001306
INCLINATION    = 53.1597
RA_OF_ASC_NODE = 11.4439
ARG_OF_PERICENTER = 90.8361
MEAN_ANOMALY   = 27.8797

EPHEMERIS_TYPE = 0
CLASSIFICATION_TYPE = U
NORAD_CAT_ID   = 66211
ELEMENT_SET_NO = 999
REV_AT_EPOCH   = 500
BSTAR          = .16097E-2
MEAN_MOTION_DOT = .64433E-3
MEAN_MOTION_DDOT = 0

CCSDS_OMM_VERS = 2.0
CREATION_DATE  = 
ORIGINATOR     = 

OBJECT_NAME    = STARLINK-35710
OBJECT_ID      = 2025-244G
CENTER_NAME    = EARTH
REF_FRAME      = TEME
TIME_SYSTEM    = UTC
MEAN_ELEMENT_THEORY = SGP/SGP4

EPOCH          = 2025-11-22T12:00:02.998944
MEAN_MOTION    = 15.39602522
ECCENTRICITY   = .0002143
INCLINATION    = 53.1601
RA_OF_ASC_NODE = 11.3921
ARG_OF_PERICENTER = 78.3012
MEAN_ANOMALY   = 66.0854

EPHEMERIS_TYPE = 0
CLASSIFICATION_TYPE = U
NORAD_CAT_ID   = 66212
ELEMENT_SET_NO = 999
REV_AT_EPOCH   = 508
BSTAR          = .22258E-2
MEAN_MOTION_DOT = .89636E-3
MEAN_MOTION_DDOT = 0

CCSDS_OMM_VERS = 2.0
CREATION_DATE  = 
ORIGINATOR     = 

OBJECT_NAME    = STARLINK-34204
OBJECT_ID      = 2025-244H
CENTER_NAME    = EARTH
REF_FRAME      = TEME
TIME_SYSTEM    = UTC
MEAN_ELEMENT_THEORY = SGP/SGP4

EPOCH          = 2025-11-22T12:00:02.998944
MEAN_MOTION    = 15.39574340
ECCENTRICITY   = .0001407
INCLINATION    = 53.1599
RA_OF_ASC_NODE = 11.4405
ARG_OF_PERICENTER = 74.8704
MEAN_ANOMALY   = 45.6793

EPHEMERIS_TYPE = 0
CLASSIFICATION_TYPE = U
NORAD_CAT_ID   = 66213
ELEMENT_SET_NO = 999
REV_AT_EPOCH   = 527
BSTAR          = .16412E-2
MEAN_MOTION_DOT = .65717E-3
MEAN_MOTION_DDOT = 0

CCSDS_OMM_VERS = 2.0
CREATION_DATE  = 
ORIGINATOR     = 

OBJECT_NAME    = STARLINK-35714
OBJECT_ID      = 2025-244J
CENTER_NAME    = EARTH
REF_FRAME      = TEME
TIME_SYSTEM    = UTC
MEAN_ELEMENT_THEORY = SGP/SGP4

EPOCH          = 2025-11-22T12:00:02.998944
MEAN_MOTION    = 15.41668606
ECCENTRICITY   = .0001612
INCLINATION    = 53.1605
RA_OF_ASC_NODE = 11.2913
ARG_OF_PERICENTER = 64.6839
MEAN_ANOMALY   = 129.9323

EPHEMERIS_TYPE = 0
CLASSIFICATION_TYPE = U
NORAD_CAT_ID   = 66214
ELEMENT_SET_NO = 999
REV_AT_EPOCH   = 495
BSTAR          = -.64719E-1
MEAN_MOTION_DOT = -.2455895E-1
MEAN_MOTION_DDOT = 0

CCSDS_OMM_VERS = 2.0
CREATION_DATE  = 
ORIGINATOR     = 

OBJECT_NAME    = STARLINK-35712
OBJECT_ID      = 2025-244K
CENTER_NAME    = EARTH
REF_FRAME      = TEME
TIME_SYSTEM    = UTC
MEAN_ELEMENT_THEORY = SGP/SGP4

EPOCH          = 2025-11-22T12:00:02.998944
MEAN_MOTION    = 15.44264389
ECCENTRICITY   = .0001572
INCLINATION    = 53.1604
RA_OF_ASC_NODE = 11.2545
ARG_OF_PERICENTER = 71.9454
MEAN_ANOMALY   = 141.1487

EPHEMERIS_TYPE = 0
CLASSIFICATION_TYPE = U
NORAD_CAT_ID   = 66215
ELEMENT_SET_NO = 999
REV_AT_EPOCH   = 495
BSTAR          = -.48597E-1
MEAN_MOTION_DOT = -.2022183E-1
MEAN_MOTION_DDOT = 0

