STARLINK-35548          
1 66203U 25243AC  25326.50003471  .00103785  00000+0  18543-2 0  9997
2 66203  53.1600  23.5568 0001217  83.8649  24.3042 15.49234178  5398
STARLINK-35490          
1 66204U 25243AD  25326.50003471  .00008723  00000+0  16474-3 0  9996
2 66204  53.1599  23.5646 0001180  80.4150  23.8856 15.49305041  5285
STARLINK-35748          
1 66206U 25244A   25326.50003471  .00060337  00000+0  15084-2 0  9993
2 66206  53.1594  11.5480 0001274  95.4421 331.7556 15.39581608  5008
STARLINK-35747          
1 66207U 25244B   25326.38956003  .00267996  00000+0  19514-2 0  9990
2 66207  53.1605  10.2397 0003690 351.3068   8.7886 15.71984677  5208
STARLINK-35751          
1 66208U 25244C   25326.50003471  .00058437  00000+0  14618-2 0  9995
2 66208  53.1594  11.5440 0001715  77.5653 351.4740 15.39577282  5113
STARLINK-35750          
1 66209U 25244D   25326.50003471  .00067849  00000+0  16941-2 0  9994
2 66209  53.1594  11.4917 0001195  77.0799  17.7232 15.39566259  5086
STARLINK-35740          
1 66210U 25244E   25326.50003471  .00085798  00000+0  21382-2 0  9994
2 66210  53.1594  11.4955 0001272  85.3553   7.7115 15.39515192  4950
STARLINK-35723          
1 66211U 25244F   25326.50003471  .00064433  00000+0  16097-2 0  9995
2 66211  53.1597  11.4439 0001306  90.8361  27.8797 15.39573821  5006
STARLINK-35710          
1 66212U 25244G   25326.50003471  .00089636  00000+0  22258-2 0  9994
2 66212  53.1601  11.3921 0002143  78.3012  66.0854 15.39602522  5080
STARLINK-34204          
1 66213U 25244H   25326.50003471  .00065717  00000+0  16412-2 0  9994
2 66213  53.1599  11.4405 0001407  74.8704  45.6793 15.39574340  5278
STARLINK-35714          
1 66214U 25244J   25326.50003471 -.02455895  00000+0 -64719-1 0  9991
2 66214  53.1605  11.2913 0001612  64.6839 129.9323 15.41668606  4954
STARLINK-35712          
1 66215U 25244K   25326.50003471 -.02022183  00000+0 -48597-1 0  9998
2 66215  53.1604  11.2545 0001572  71.9454 141.1487 15.44264389  4954
